{
  "norad_id": 55471,
  "name": "STARLINK-5711",
  "history": [
    {
      "epoch": "2026-03-28T22:00:01.999584Z",
      "apogee_km": 487.0109413414102,
      "perigee_km": 484.65742290248545,
      "latitude_deg": 36.71803272283629,
      "longitude_deg": -169.28783401744795,
      "height_km": 488.7715100832393,
      "semi_major_axis_km": 6863.971182121948,
      "eccentricity": 0.00017144,
      "inclination_deg": 42.9994,
      "raan_deg": 219.748,
      "arg_perigee_deg": 285.754,
      "mean_anomaly_deg": 193.3464,
      "mean_motion_rev_day": 15.26650361
    },
    {
      "epoch": "2026-03-29T04:00:01.999584Z",
      "apogee_km": 486.724293370743,
      "perigee_km": 484.5073012172179,
      "latitude_deg": 33.96437390528108,
      "longitude_deg": 17.668000236915066,
      "height_km": 487.89399710439375,
      "semi_major_axis_km": 6863.752797293981,
      "eccentricity": 0.0001615,
      "inclination_deg": 43.0039,
      "raan_deg": 218.3416,
      "arg_perigee_deg": 258.4708,
      "mean_anomaly_deg": 156.2453,
      "mean_motion_rev_day": 15.26723222
    },
    {
      "epoch": "2026-03-30T04:00:01.999584Z",
      "apogee_km": 486.81055681107046,
      "perigee_km": 484.36158042018815,
      "latitude_deg": 15.237544828993933,
      "longitude_deg": 128.2432950090729,
      "height_km": 484.9502195457182,
      "semi_major_axis_km": 6863.723068615629,
      "eccentricity": 0.0001784,
      "inclination_deg": 43.0006,
      "raan_deg": 212.7013,
      "arg_perigee_deg": 261.3257,
      "mean_anomaly_deg": 256.081,
      "mean_motion_rev_day": 15.26733141
    },
    {
      "epoch": "2026-03-30T06:00:02.000160Z",
      "apogee_km": 486.75325237527613,
      "perigee_km": 484.50097681871193,
      "latitude_deg": -41.58900342031963,
      "longitude_deg": -174.2549595770664,
      "height_km": 497.21594263928705,
      "semi_major_axis_km": 6863.764114596994,
      "eccentricity": 0.00016407,
      "inclination_deg": 43.0005,
      "raan_deg": 212.2313,
      "arg_perigee_deg": 264.6564,
      "mean_anomaly_deg": 351.3135,
      "mean_motion_rev_day": 15.26719446
    },
    {
      "epoch": "2026-03-30T14:00:03.000384Z",
      "apogee_km": 486.6050328491465,
      "perigee_km": 484.53617410330753,
      "latitude_deg": -39.941758155102164,
      "longitude_deg": 109.1166378307479,
      "height_km": 496.6049912758393,
      "semi_major_axis_km": 6863.707603476227,
      "eccentricity": 0.00015071,
      "inclination_deg": 43.0006,
      "raan_deg": 210.3545,
      "arg_perigee_deg": 273.0496,
      "mean_anomaly_deg": 17.2163,
      "mean_motion_rev_day": 15.26738301
    },
    {
      "epoch": "2026-03-30T22:00:00.999936Z",
      "apogee_km": 486.70219583039125,
      "perigee_km": 484.4161731791801,
      "latitude_deg": -23.556005872699664,
      "longitude_deg": 22.460741612780556,
      "height_km": 490.5811408514065,
      "semi_major_axis_km": 6863.696184504785,
      "eccentricity": 0.00016653,
      "inclination_deg": 43.0009,
      "raan_deg": 208.4722,
      "arg_perigee_deg": 266.8485,
      "mean_anomaly_deg": 57.5362,
      "mean_motion_rev_day": 15.26742111
    },
    {
      "epoch": "2026-03-31T20:00:01.999008Z",
      "apogee_km": 486.78983605299527,
      "perigee_km": 484.4616477309455,
      "latitude_deg": -20.953549584349968,
      "longitude_deg": 49.98729747422933,
      "height_km": 489.7039670777958,
      "semi_major_axis_km": 6863.76274189197,
      "eccentricity": 0.0001696,
      "inclination_deg": 43.0012,
      "raan_deg": 203.3027,
      "arg_perigee_deg": 273.6451,
      "mean_anomaly_deg": 54.9684,
      "mean_motion_rev_day": 15.26719904
    },
    {
      "epoch": "2026-04-01T18:07:11.962848Z",
      "apogee_km": 486.5758726874683,
      "perigee_km": 484.6210808236874,
      "latitude_deg": -4.5361160794333314e-05,
      "longitude_deg": 96.18723302025535,
      "height_km": 485.7352681205016,
      "semi_major_axis_km": 6863.735476755577,
      "eccentricity": 0.0001424,
      "inclination_deg": 43.0012,
      "raan_deg": 198.1006,
      "arg_perigee_deg": 248.3888,
      "mean_anomaly_deg": 111.6811,
      "mean_motion_rev_day": 15.26729001
    },
    {
      "epoch": "2026-04-02T00:24:02.709792Z",
      "apogee_km": 486.60487225451016,
      "perigee_km": 484.6893273879323,
      "latitude_deg": 2.551242410375467e-06,
      "longitude_deg": 0.24339705528557953,
      "height_km": 485.69457147579317,
      "semi_major_axis_km": 6863.784099821221,
      "eccentricity": 0.00013954,
      "inclination_deg": 43.0014,
      "raan_deg": 196.6261,
      "arg_perigee_deg": 253.5876,
      "mean_anomaly_deg": 106.4822,
      "mean_motion_rev_day": 15.26712778
    },
    {
      "epoch": "2026-04-03T06:13:58.467072Z",
      "apogee_km": 487.2182985388481,
      "perigee_km": 483.92920834579854,
      "latitude_deg": -2.6094921944667915e-05,
      "longitude_deg": -95.47201788714227,
      "height_km": 485.0499757004037,
      "semi_major_axis_km": 6863.710753442323,
      "eccentricity": 0.0002396,
      "inclination_deg": 43.0034,
      "raan_deg": 189.6182,
      "arg_perigee_deg": 280.5716,
      "mean_anomaly_deg": 79.4865,
      "mean_motion_rev_day": 15.2673725
    },
    {
      "epoch": "2026-04-04T07:21:17.182368Z",
      "apogee_km": 486.83935347374336,
      "perigee_km": 484.1592407724429,
      "latitude_deg": 2.664563342029363e-05,
      "longitude_deg": -119.23876074488066,
      "height_km": 485.2863280674263,
      "semi_major_axis_km": 6863.636297123093,
      "eccentricity": 0.00019524,
      "inclination_deg": 43.0026,
      "raan_deg": 183.7111,
      "arg_perigee_deg": 269.5927,
      "mean_anomaly_deg": 90.4701,
      "mean_motion_rev_day": 15.26762093
    },
    {
      "epoch": "2026-04-05T05:20:12.397344Z",
      "apogee_km": 486.6472496006745,
      "perigee_km": 484.4693990742626,
      "latitude_deg": -2.936944701206903e-05,
      "longitude_deg": -95.0349527666832,
      "height_km": 485.17690885528225,
      "semi_major_axis_km": 6863.695324337468,
      "eccentricity": 0.00015865,
      "inclination_deg": 43.0022,
      "raan_deg": 178.5478,
      "arg_perigee_deg": 278.3753,
      "mean_anomaly_deg": 81.6918,
      "mean_motion_rev_day": 15.26742398
    },
    {
      "epoch": "2026-04-06T04:53:21.020928Z",
      "apogee_km": 486.8822978624021,
      "perigee_km": 484.3696115199482,
      "latitude_deg": 3.0113699386779848e-05,
      "longitude_deg": -94.82478534679838,
      "height_km": 485.7451064802569,
      "semi_major_axis_km": 6863.762954691175,
      "eccentricity": 0.00018304,
      "inclination_deg": 43.0039,
      "raan_deg": 173.0111,
      "arg_perigee_deg": 254.2183,
      "mean_anomaly_deg": 105.8467,
      "mean_motion_rev_day": 15.26719833
    },
    {
      "epoch": "2026-04-07T04:26:27.386016Z",
      "apogee_km": 486.90779719535385,
      "perigee_km": 484.2321869357056,
      "latitude_deg": -4.557162352086669e-05,
      "longitude_deg": -94.60282651369022,
      "height_km": 485.18314711751924,
      "semi_major_axis_km": 6863.706992065529,
      "eccentricity": 0.00019491,
      "inclination_deg": 43.0042,
      "raan_deg": 167.4769,
      "arg_perigee_deg": 277.0652,
      "mean_anomaly_deg": 82.9977,
      "mean_motion_rev_day": 15.26738505
    },
    {
      "epoch": "2026-04-08T05:33:46.173024Z",
      "apogee_km": 486.68843232340623,
      "perigee_km": 484.3428476702138,
      "latitude_deg": 1.663285545457577e-05,
      "longitude_deg": -118.36946165759906,
      "height_km": 485.34944469954087,
      "semi_major_axis_km": 6863.65263999681,
      "eccentricity": 0.00017087,
      "inclination_deg": 43.002,
      "raan_deg": 161.5702,
      "arg_perigee_deg": 267.2357,
      "mean_anomaly_deg": 92.8299,
      "mean_motion_rev_day": 15.2675664
    },
    {
      "epoch": "2026-04-09T20:48:58.138848Z",
      "apogee_km": 486.77076381466395,
      "perigee_km": 484.3327815626053,
      "latitude_deg": -3.208685062610968e-05,
      "longitude_deg": 1.995547168287477,
      "height_km": 485.2310302790134,
      "semi_major_axis_km": 6863.688772688634,
      "eccentricity": 0.0001776,
      "inclination_deg": 43.0034,
      "raan_deg": 152.3472,
      "arg_perigee_deg": 274.6216,
      "mean_anomaly_deg": 85.4432,
      "mean_motion_rev_day": 15.26744584
    },
    {
      "epoch": "2026-04-10T03:05:48.028704Z",
      "apogee_km": 486.7650947704569,
      "perigee_km": 484.337545485394,
      "latitude_deg": -2.8458894566617906e-05,
      "longitude_deg": -93.94625605173665,
      "height_km": 485.2252328098429,
      "semi_major_axis_km": 6863.688320127925,
      "eccentricity": 0.00017684,
      "inclination_deg": 43.0034,
      "raan_deg": 150.8712,
      "arg_perigee_deg": 274.8944,
      "mean_anomaly_deg": 85.1705,
      "mean_motion_rev_day": 15.26744735
    },
    {
      "epoch": "2026-04-11T19:55:12.557280Z",
      "apogee_km": 486.78261899772406,
      "perigee_km": 484.3377700570336,
      "latitude_deg": 2.8427727602978512e-05,
      "longitude_deg": 2.4300380811436844,
      "height_km": 485.26731645712306,
      "semi_major_axis_km": 6863.697194527378,
      "eccentricity": 0.0001781,
      "inclination_deg": 43.004,
      "raan_deg": 141.2762,
      "arg_perigee_deg": 273.3024,
      "mean_anomaly_deg": 86.7624,
      "mean_motion_rev_day": 15.26741774
    },
    {
      "epoch": "2026-04-13T03:19:22.680480Z",
      "apogee_km": 487.14144140638473,
      "perigee_km": 484.0185874391618,
      "latitude_deg": 1.0367571154263063e-05,
      "longitude_deg": -117.28132953210209,
      "height_km": 485.4137858366066,
      "semi_major_axis_km": 6863.717014422773,
      "eccentricity": 0.00022749,
      "inclination_deg": 43.0047,
      "raan_deg": 133.8967,
      "arg_perigee_deg": 267.952,
      "mean_anomaly_deg": 92.1071,
      "mean_motion_rev_day": 15.26735161
    }
  ]
}